{
  "type": "FeatureCollection",
  "features": [
    {
      "type": "Feature",
      "properties": {
        "norad_id": 33682,
        "name": "FENGYUN 1C DEB",
        "group": "fengyun-1c-debris",
        "lat": -6.380412258736923,
        "lon": 26.040972517004228,
        "alt_km": 814.2514493851786,
        "timestamp": "2025-12-04T23:34:06.009660+00:00",
        "meta_object_name": "FENGYUN 1C DEB",
        "meta_object_id": "1999-025DFT",
        "meta_epoch": "2025-12-03T02:09:00.429984",
        "meta_mean_motion": 14.26572942,
        "meta_eccentricity": 0.00292638,
        "meta_inclination": 99.4219,
        "meta_ra_of_asc_node": 22.942,
        "meta_arg_of_pericenter": 109.8341,
        "meta_mean_anomaly": 250.5995,
        "meta_ephemeris_type": 0,
        "meta_classification_type": "U",
        "meta_norad_cat_id": 33682,
        "meta_element_set_no": 999,
        "meta_rev_at_epoch": 91560,
        "meta_bstar": 0.0019395414,
        "meta_mean_motion_dot": 4.654e-05,
        "meta_mean_motion_ddot": 0,
        "tle_line1": "1 33682U 99025DFT 25337.08958831  .00004654  00000+0  19395-2 0  9996",
        "tle_line2": "2 33682  99.4219  22.9420 0029263 109.8341 250.5995 14.26572942915603"
      },
      "geometry": {
        "type": "Point",
        "coordinates": [
          26.040972517004228,
          -6.380412258736923
        ]
      }
    },
    {
      "type": "Feature",
      "properties": {
        "norad_id": 33684,
        "name": "FENGYUN 1C DEB",
        "group": "fengyun-1c-debris",
        "lat": 50.08826112692897,
        "lon": -135.3363076693419,
        "alt_km": 757.6185308819386,
        "timestamp": "2025-12-04T23:34:06.009670+00:00",
        "meta_object_name": "FENGYUN 1C DEB",
        "meta_object_id": "1999-025DFV",
        "meta_epoch": "2025-12-03T22:32:33.696960",
        "meta_mean_motion": 14.72837728,
        "meta_eccentricity": 0.0288949,
        "meta_inclination": 99.0677,
        "meta_ra_of_asc_node": 32.4922,
        "meta_arg_of_pericenter": 7.9289,
        "meta_mean_anomaly": 352.634,
        "meta_ephemeris_type": 0,
        "meta_classification_type": "U",
        "meta_norad_cat_id": 33684,
        "meta_element_set_no": 999,
        "meta_rev_at_epoch": 92859,
        "meta_bstar": 0.0014257,
        "meta_mean_motion_dot": 0.00017805,
        "meta_mean_motion_ddot": 0,
        "tle_line1": "1 33684U 99025DFV 25337.93927890  .00017805  00000+0  14257-2 0  9997",
        "tle_line2": "2 33684  99.0677  32.4922 0288949   7.9289 352.6340 14.72837728928596"
      },
      "geometry": {
        "type": "Point",
        "coordinates": [
          -135.3363076693419,
          50.08826112692897
        ]
      }
    },
    {
      "type": "Feature",
      "properties": {
        "norad_id": 33687,
        "name": "FENGYUN 1C DEB",
        "group": "fengyun-1c-debris",
        "lat": 78.55396459446399,
        "lon": -145.24989871317612,
        "alt_km": 511.5210921529306,
        "timestamp": "2025-12-04T23:34:06.009681+00:00",
        "meta_object_name": "FENGYUN 1C DEB",
        "meta_object_id": "1999-025DFY",
        "meta_epoch": "2025-12-02T06:16:02.710272",
        "meta_mean_motion": 15.17405521,
        "meta_eccentricity": 0.0119547,
        "meta_inclination": 98.9972,
        "meta_ra_of_asc_node": 340.0261,
        "meta_arg_of_pericenter": 11.3354,
        "meta_mean_anomaly": 349.0524,
        "meta_ephemeris_type": 0,
        "meta_classification_type": "U",
        "meta_norad_cat_id": 33687,
        "meta_element_set_no": 999,
        "meta_rev_at_epoch": 71349,
        "meta_bstar": 0.0018833,
        "meta_mean_motion_dot": 0.00045488,
        "meta_mean_motion_ddot": 0,
        "tle_line1": "1 33687U 99025DFY 25336.26114248  .00045488  00000+0  18833-2 0  9992",
        "tle_line2": "2 33687  98.9972 340.0261 0119547  11.3354 349.0524 15.17405521713495"
      },
      "geometry": {
        "type": "Point",
        "coordinates": [
          -145.24989871317612,
          78.55396459446399
        ]
      }
    },
    {
      "type": "Feature",
      "properties": {
        "norad_id": 33688,
        "name": "FENGYUN 1C DEB",
        "group": "fengyun-1c-debris",
        "lat": 67.48943346474312,
        "lon": -76.99466329408395,
        "alt_km": 772.002955038045,
        "timestamp": "2025-12-04T23:34:06.009691+00:00",
        "meta_object_name": "FENGYUN 1C DEB",
        "meta_object_id": "1999-025DFZ",
        "meta_epoch": "2025-12-02T06:15:25.398432",
        "meta_mean_motion": 14.45255894,
        "meta_eccentricity": 0.0053128,
        "meta_inclination": 99.3492,
        "meta_ra_of_asc_node": 76.5882,
        "meta_arg_of_pericenter": 293.1663,
        "meta_mean_anomaly": 66.3934,
        "meta_ephemeris_type": 0,
        "meta_classification_type": "U",
        "meta_norad_cat_id": 33688,
        "meta_element_set_no": 999,
        "meta_rev_at_epoch": 91330,
        "meta_bstar": 0.0032471,
        "meta_mean_motion_dot": 0.00011555,
        "meta_mean_motion_ddot": 0,
        "tle_line1": "1 33688U 99025DFZ 25336.26071063  .00011555  00000+0  32471-2 0  9992",
        "tle_line2": "2 33688  99.3492  76.5882 0053128 293.1663  66.3934 14.45255894913305"
      },
      "geometry": {
        "type": "Point",
        "coordinates": [
          -76.99466329408395,
          67.48943346474312
        ]
      }
    },
    {
      "type": "Feature",
      "properties": {
        "norad_id": 33689,
        "name": "FENGYUN 1C DEB",
        "group": "fengyun-1c-debris",
        "lat": 23.3049819739202,
        "lon": 169.49891783706443,
        "alt_km": 708.9504088130398,
        "timestamp": "2025-12-04T23:34:06.009701+00:00",
        "meta_object_name": "FENGYUN 1C DEB",
        "meta_object_id": "1999-025DGA",
        "meta_epoch": "2025-11-29T19:02:12.805728",
        "meta_mean_motion": 14.44995922,
        "meta_eccentricity": 0.00478162,
        "meta_inclination": 99.5667,
        "meta_ra_of_asc_node": 339.4956,
        "meta_arg_of_pericenter": 189.1023,
        "meta_mean_anomaly": 349.9963,
        "meta_ephemeris_type": 0,
        "meta_classification_type": "U",
        "meta_norad_cat_id": 33689,
        "meta_element_set_no": 999,
        "meta_rev_at_epoch": 69343,
        "meta_bstar": 0.0010237814,
        "meta_mean_motion_dot": 3.568e-05,
        "meta_mean_motion_ddot": 0,
        "tle_line1": "1 33689U 99025DGA 25333.79320377  .00003568  00000+0  10238-2 0  9995",
        "tle_line2": "2 33689  99.5667 339.4956 0047816 189.1023 349.9963 14.44995922693439"
      },
      "geometry": {
        "type": "Point",
        "coordinates": [
          169.49891783706443,
          23.3049819739202
        ]
      }
    },
    {
      "type": "Feature",
      "properties": {
        "norad_id": 33690,
        "name": "FENGYUN 1C DEB",
        "group": "fengyun-1c-debris",
        "lat": -19.23192640516833,
        "lon": 80.19036259083849,
        "alt_km": 727.9363573872897,
        "timestamp": "2025-12-04T23:34:06.009711+00:00",
        "meta_object_name": "FENGYUN 1C DEB",
        "meta_object_id": "1999-025DGB",
        "meta_epoch": "2025-12-04T05:27:20.885184",
        "meta_mean_motion": 14.51220952,
        "meta_eccentricity": 0.0031142,
        "meta_inclination": 98.6132,
        "meta_ra_of_asc_node": 76.3866,
        "meta_arg_of_pericenter": 76.4852,
        "meta_mean_anomaly": 283.9809,
        "meta_ephemeris_type": 0,
        "meta_classification_type": "U",
        "meta_norad_cat_id": 33690,
        "meta_element_set_no": 999,
        "meta_rev_at_epoch": 93096,
        "meta_bstar": 0.005632,
        "meta_mean_motion_dot": 0.00022544,
        "meta_mean_motion_ddot": 0,
        "tle_line1": "1 33690U 99025DGB 25338.22732506  .00022544  00000+0  56320-2 0  9998",
        "tle_line2": "2 33690  98.6132  76.3866 0031142  76.4852 283.9809 14.51220952930968"
      },
      "geometry": {
        "type": "Point",
        "coordinates": [
          80.19036259083849,
          -19.23192640516833
        ]
      }
    },
    {
      "type": "Feature",
      "properties": {
        "norad_id": 33693,
        "name": "FENGYUN 1C DEB",
        "group": "fengyun-1c-debris",
        "lat": -79.88760504136873,
        "lon": -137.45332873902342,
        "alt_km": 1041.945758372015,
        "timestamp": "2025-12-04T23:34:06.009722+00:00",
        "meta_object_name": "FENGYUN 1C DEB",
        "meta_object_id": "1999-025DGE",
        "meta_epoch": "2025-12-02T10:41:23.670240",
        "meta_mean_motion": 13.71264167,
        "meta_eccentricity": 0.02264355,
        "meta_inclination": 99.2155,
        "meta_ra_of_asc_node": 154.5726,
        "meta_arg_of_pericenter": 25.8036,
        "meta_mean_anomaly": 335.4204,
        "meta_ephemeris_type": 0,
        "meta_classification_type": "U",
        "meta_norad_cat_id": 33693,
        "meta_element_set_no": 999,
        "meta_rev_at_epoch": 88090,
        "meta_bstar": 0.001988298,
        "meta_mean_motion_dot": 2.098e-05,
        "meta_mean_motion_ddot": 0,
        "tle_line1": "1 33693U 99025DGE 25336.44541285  .00002098  00000+0  19883-2 0  9990",
        "tle_line2": "2 33693  99.2155 154.5726 0226435  25.8036 335.4204 13.71264167880907"
      },
      "geometry": {
        "type": "Point",
        "coordinates": [
          -137.45332873902342,
          -79.88760504136873
        ]
      }
    }
  ]
}